<?xml version="1.0" encoding="UTF-8"?><?xml-stylesheet type="text/xsl" href="main-sitemap.xsl"?>
<kml xmlns="http://www.opengis.net/kml/2.2" xmlns:atom="http://www.w3.org/2005/Atom">
	<Document>
		<name>Locations for Rose Hearing Healthcare Centers</name>
		<open>1</open>
		<Folder>
			<atom:link href="https://rosehearinghealthcarecenters-staging.local-981.workers.dev" />
			<Placemark>
				<name>Rose Hearing Healthcare Centers - Bluffton</name>
				<address>108 Buckwalter Pkwy, Ste. 2G, Bluffton, SC 29910</address>
				<phoneNumber>843-594-1787</phoneNumber>
				<atom:link href="https://rosehearinghealthcarecenters-staging.local-981.workers.dev/audiology-hearing-aids-bluffton-sc/"/>
				<LookAt><longitude>-80.8893</longitude><latitude>32.2692</latitude><altitude>0</altitude><range>2500</range><tilt>0</tilt></LookAt>
				<Point><coordinates>-80.8893,32.2692,0</coordinates></Point>
			</Placemark>
			<Placemark>
				<name>Rose Hearing Healthcare Centers - Hilton Head</name>
				<address>1505 Main Street, Hilton Head Island, SC 29926</address>
				<phoneNumber>843-547-5832</phoneNumber>
				<atom:link href="https://rosehearinghealthcarecenters-staging.local-981.workers.dev/audiology-hearing-aids-hilton-head-sc/"/>
				<LookAt><longitude>-80.7380</longitude><latitude>32.2163</latitude><altitude>0</altitude><range>2500</range><tilt>0</tilt></LookAt>
				<Point><coordinates>-80.7380,32.2163,0</coordinates></Point>
			</Placemark>
		</Folder>
	</Document>
</kml>
